{
    "links": {
        "self": "http://www.neowsapp.com/rest/v1/neo/54053735?api_key=iIulBulltgU6a56xZRHN4H3l9WmuAYTsLGpBGhQ2"
    },
    "id": "54053735",
    "neo_reference_id": "54053735",
    "name": "(2020 RN)",
    "designation": "2020 RN",
    "nasa_jpl_url": "http://ssd.jpl.nasa.gov/sbdb.cgi?sstr=54053735",
    "absolute_magnitude_h": 22.14,
    "estimated_diameter": {
        "kilometers": {
            "estimated_diameter_min": 0.0992098919,
            "estimated_diameter_max": 0.2218400624
        },
        "meters": {
            "estimated_diameter_min": 99.2098919421,
            "estimated_diameter_max": 221.8400624229
        },
        "miles": {
            "estimated_diameter_min": 0.0616461498,
            "estimated_diameter_max": 0.1378449814
        },
        "feet": {
            "estimated_diameter_min": 325.4917818793,
            "estimated_diameter_max": 727.8217503997
        }
    },
    "is_potentially_hazardous_asteroid": false,
    "close_approach_data": [
        {
            "close_approach_date": "1958-04-01",
            "close_approach_date_full": "1958-Apr-01 08:56",
            "epoch_date_close_approach": -370883040000,
            "relative_velocity": {
                "kilometers_per_second": "15.9843616744",
                "kilometers_per_hour": "57543.70202793",
                "miles_per_hour": "35755.4186295213"
            },
            "miss_distance": {
                "astronomical": "0.1275303337",
                "lunar": "49.6092998093",
                "kilometers": "19078266.281909219",
                "miles": "11854684.9585324622"
            },
            "orbiting_body": "Earth"
        },
        {
            "close_approach_date": "1958-08-21",
            "close_approach_date_full": "1958-Aug-21 05:30",
            "epoch_date_close_approach": -358626600000,
            "relative_velocity": {
                "kilometers_per_second": "13.1029065542",
                "kilometers_per_hour": "47170.4635952802",
                "miles_per_hour": "29309.8916711895"
            },
            "miss_distance": {
                "astronomical": "0.0311210762",
                "lunar": "12.1060986418",
                "kilometers": "4655646.711627694",
                "miles": "2892884.7217584172"
            },
            "orbiting_body": "Mars"
        },
        {
            "close_approach_date": "1960-08-26",
            "close_approach_date_full": "1960-Aug-26 05:25",
            "epoch_date_close_approach": -295036500000,
            "relative_velocity": {
                "kilometers_per_second": "16.5834861132",
                "kilometers_per_hour": "59700.550007565",
                "miles_per_hour": "37095.600086645"
            },
            "miss_distance": {
                "astronomical": "0.1279660059",
                "lunar": "49.7787762951",
                "kilometers": "19143441.915047433",
                "miles": "11895183.2190352554"
            },
            "orbiting_body": "Earth"
        },
        {
            "close_approach_date": "2018-03-30",
            "close_approach_date_full": "2018-Mar-30 10:35",
            "epoch_date_close_approach": 1522406100000,
            "relative_velocity": {
                "kilometers_per_second": "17.3493605893",
                "kilometers_per_hour": "62457.6981213947",
                "miles_per_hour": "38808.7847021522"
            },
            "miss_distance": {
                "astronomical": "0.1669538705",
                "lunar": "64.9450556245",
                "kilometers": "24975943.415055835",
                "miles": "15519331.597147123"
            },
            "orbiting_body": "Earth"
        },
        {
            "close_approach_date": "2020-08-24",
            "close_approach_date_full": "2020-Aug-24 17:06",
            "epoch_date_close_approach": 1598288760000,
            "relative_velocity": {
                "kilometers_per_second": "15.5841952205",
                "kilometers_per_hour": "56103.1027937258",
                "miles_per_hour": "34860.2862886904"
            },
            "miss_distance": {
                "astronomical": "0.0961296924",
                "lunar": "37.3944503436",
                "kilometers": "14380797.226795188",
                "miles": "8935813.0375740744"
            },
            "orbiting_body": "Earth"
        }
    ],
    "orbital_data": {
        "orbit_id": "9",
        "orbit_determination_date": "2020-09-22 06:46:38",
        "first_observation_date": "2020-09-05",
        "last_observation_date": "2020-09-22",
        "data_arc_in_days": 17,
        "observations_used": 74,
        "orbit_uncertainty": "7",
        "minimum_orbit_intersection": ".0578799",
        "jupiter_tisserand_invariant": "4.100",
        "epoch_osculation": "2459000.5",
        "eccentricity": ".4961578300471987",
        "semi_major_axis": "1.662005702089434",
        "inclination": "9.152854975505752",
        "ascending_node_longitude": "165.9107808413483",
        "orbital_period": "782.6132402917789",
        "perihelion_distance": ".8373885594146696",
        "perihelion_argument": "96.11100340828904",
        "aphelion_distance": "2.486622844764199",
        "perihelion_time": "2459038.022323663940",
        "mean_anomaly": "342.7398313450685",
        "mean_motion": ".4599973287773441",
        "equinox": "J2000",
        "orbit_class": {
            "orbit_class_type": "APO",
            "orbit_class_description": "Near-Earth asteroid orbits which cross the Earth’s orbit similar to that of 1862 Apollo",
            "orbit_class_range": "a (semi-major axis) > 1.0 AU; q (perihelion) < 1.017 AU"
        }
    },
    "is_sentry_object": false
}